{
    "links": {
        "self": "http://www.neowsapp.com/rest/v1/neo/3445664?api_key=iIulBulltgU6a56xZRHN4H3l9WmuAYTsLGpBGhQ2"
    },
    "id": "3445664",
    "neo_reference_id": "3445664",
    "name": "(2009 CX2)",
    "designation": "2009 CX2",
    "nasa_jpl_url": "http://ssd.jpl.nasa.gov/sbdb.cgi?sstr=3445664",
    "absolute_magnitude_h": 23.9,
    "estimated_diameter": {
        "kilometers": {
            "estimated_diameter_min": 0.04411182,
            "estimated_diameter_max": 0.0986370281
        },
        "meters": {
            "estimated_diameter_min": 44.1118199997,
            "estimated_diameter_max": 98.6370281305
        },
        "miles": {
            "estimated_diameter_min": 0.0274098057,
            "estimated_diameter_max": 0.0612901888
        },
        "feet": {
            "estimated_diameter_min": 144.7238235278,
            "estimated_diameter_max": 323.6123073718
        }
    },
    "is_potentially_hazardous_asteroid": false,
    "close_approach_data": [
        {
            "close_approach_date": "2009-01-27",
            "close_approach_date_full": "2009-Jan-27 14:12",
            "epoch_date_close_approach": 1233065520000,
            "relative_velocity": {
                "kilometers_per_second": "9.9827490135",
                "kilometers_per_hour": "35937.8964486877",
                "miles_per_hour": "22330.4112683526"
            },
            "miss_distance": {
                "astronomical": "0.0562101007",
                "lunar": "21.8657291723",
                "kilometers": "8408911.337205509",
                "miles": "5225055.2159096642"
            },
            "orbiting_body": "Earth"
        },
        {
            "close_approach_date": "2115-08-20",
            "close_approach_date_full": "2115-Aug-20 13:47",
            "epoch_date_close_approach": 4595752020000,
            "relative_velocity": {
                "kilometers_per_second": "5.6142928866",
                "kilometers_per_hour": "20211.4543917312",
                "miles_per_hour": "12558.6117580177"
            },
            "miss_distance": {
                "astronomical": "1.9802010311",
                "lunar": "770.2982010979",
                "kilometers": "296233856.424363757",
                "miles": "184071182.8879315666"
            },
            "orbiting_body": "Juptr"
        }
    ],
    "orbital_data": {
        "orbit_id": "10",
        "orbit_determination_date": "2017-04-06 09:01:23",
        "first_observation_date": "2009-02-03",
        "last_observation_date": "2009-03-01",
        "data_arc_in_days": 26,
        "observations_used": 28,
        "orbit_uncertainty": "7",
        "minimum_orbit_intersection": ".0539905",
        "jupiter_tisserand_invariant": "3.233",
        "epoch_osculation": "2459000.5",
        "eccentricity": ".614900352039584",
        "semi_major_axis": "2.406217931588092",
        "inclination": "3.759961811794528",
        "ascending_node_longitude": "7.078467731951129",
        "orbital_period": "1363.329603832782",
        "perihelion_distance": ".9266336783706144",
        "perihelion_argument": "90.08538390973359",
        "aphelion_distance": "3.885802184805569",
        "perihelion_time": "2458928.017170714267",
        "mean_anomaly": "19.13977256087254",
        "mean_motion": ".264059402060894",
        "equinox": "J2000",
        "orbit_class": {
            "orbit_class_type": "APO",
            "orbit_class_description": "Near-Earth asteroid orbits which cross the Earth’s orbit similar to that of 1862 Apollo",
            "orbit_class_range": "a (semi-major axis) > 1.0 AU; q (perihelion) < 1.017 AU"
        }
    },
    "is_sentry_object": false
}